{"type": "FeatureCollection", "features": [ {"type": "Feature", "properties": {"norad_id": 33492, "name": "GOSAT (IBUKI)", "group": "resource", "lat": -31.902287840454424, "lon": 95.35506590567017, "alt_km": 675.323316099847, "timestamp": "2025-12-07T14:37:04.866069+00:00", "meta": {"OBJECT_NAME": "GOSAT (IBUKI)", "OBJECT_ID": "2009-002A", "EPOCH": "2025-12-06T22:24:03.593088", "MEAN_MOTION": 14.6753711, "ECCENTRICITY": 9.886e-05, "INCLINATION": 98.077, "RA_OF_ASC_NODE": 89.6174, "ARG_OF_PERICENTER": 86.0916, "MEAN_ANOMALY": 274.0401, "EPHEMERIS_TYPE": 0, "CLASSIFICATION_TYPE": "U", "NORAD_CAT_ID": 33492, "ELEMENT_SET_NO": 999, "REV_AT_EPOCH": 90326, "BSTAR": 0.00030286071, "MEAN_MOTION_DOT": 1.67e-05, "MEAN_MOTION_DDOT": 0}, "tle": {"line1": "1 33492U 09002A   25340.93337492  .00001670  00000+0  30286-3 0  9991", "line2": "2 33492  98.0770  89.6174 0000988  86.0916 274.0401 14.67537110903267"}}, "geometry": {"type": "Point", "coordinates": [95.35506590567017, -31.902287840454424]}}, {"type": "Feature", "properties": {"norad_id": 35681, "name": "DEIMOS-1", "group": "resource", "lat": -82.24960806559497, "lon": -122.4762816529599, "alt_km": 654.5917044578746, "timestamp": "2025-12-07T14:37:04.866081+00:00", "meta": {"OBJECT_NAME": "DEIMOS-1", "OBJECT_ID": "2009-041A", "EPOCH": "2025-12-06T22:44:49.470720", "MEAN_MOTION": 14.74938766, "ECCENTRICITY": 0.0002688, "INCLINATION": 97.7153, "RA_OF_ASC_NODE": 141.8212, "ARG_OF_PERICENTER": 91.0249, "MEAN_ANOMALY": 269.1268, "EPHEMERIS_TYPE": 0, "CLASSIFICATION_TYPE": "U", "NORAD_CAT_ID": 35681, "ELEMENT_SET_NO": 999, "REV_AT_EPOCH": 87854, "BSTAR": 0.00019622315, "MEAN_MOTION_DOT": 1.271e-05, "MEAN_MOTION_DDOT": 0}, "tle": {"line1": "1 35681U 09041A   25340.94779480  .00001271  00000+0  19622-3 0  9992", "line2": "2 35681  97.7153 141.8212 0002688  91.0249 269.1268 14.74938766878546"}}, "geometry": {"type": "Point", "coordinates": [-122.4762816529599, -82.24960806559497]}}, {"type": "Feature", "properties": {"norad_id": 35682, "name": "DUBAISAT-1", "group": "resource", "lat": -30.278876714862246, "lon": -72.33283450902049, "alt_km": 656.1455351462373, "timestamp": "2025-12-07T14:37:04.866092+00:00", "meta": {"OBJECT_NAME": "DUBAISAT-1", "OBJECT_ID": "2009-041B", "EPOCH": "2025-12-06T21:22:47.978112", "MEAN_MOTION": 14.74578144, "ECCENTRICITY": 0.00098976, "INCLINATION": 97.979, "RA_OF_ASC_NODE": 111.6571, "ARG_OF_PERICENTER": 334.7769, "MEAN_ANOMALY": 25.2956, "EPHEMERIS_TYPE": 0, "CLASSIFICATION_TYPE": "U", "NORAD_CAT_ID": 35682, "ELEMENT_SET_NO": 999, "REV_AT_EPOCH": 87675, "BSTAR": 0.00038288746, "MEAN_MOTION_DOT": 2.502e-05, "MEAN_MOTION_DDOT": 0}, "tle": {"line1": "1 35682U 09041B   25340.89083308  .00002502  00000+0  38289-3 0  9992", "line2": "2 35682  97.9790 111.6571 0009897 334.7769  25.2956 14.74578144876758"}}, "geometry": {"type": "Point", "coordinates": [-72.33283450902049, -30.278876714862246]}}, {"type": "Feature", "properties": {"norad_id": 35931, "name": "OCEANSAT-2", "group": "resource", "lat": -29.118329232506504, "lon": -12.650232174002587, "alt_km": 900.40216991746, "timestamp": "2025-12-07T14:37:04.866103+00:00", "meta": {"OBJECT_NAME": "OCEANSAT-2", "OBJECT_ID": "2009-051A", "EPOCH": "2025-12-06T23:19:01.037856", "MEAN_MOTION": 13.99625921, "ECCENTRICITY": 0.00164398, "INCLINATION": 98.2226, "RA_OF_ASC_NODE": 342.1572, "ARG_OF_PERICENTER": 60.0747, "MEAN_ANOMALY": 300.2051, "EPHEMERIS_TYPE": 0, "CLASSIFICATION_TYPE": "U", "NORAD_CAT_ID": 35931, "ELEMENT_SET_NO": 999, "REV_AT_EPOCH": 85244, "BSTAR": -8.3164716e-05, "MEAN_MOTION_DOT": -1.59e-06, "MEAN_MOTION_DDOT": 0}, "tle": {"line1": "1 35931U 09051A   25340.97153979 -.00000159  00000+0 -83165-4 0  9993", "line2": "2 35931  98.2226 342.1572 0016439  60.0747 300.2051 13.99625921852444"}}, "geometry": {"type": "Point", "coordinates": [-12.650232174002587, -29.118329232506504]}}, {"type": "Feature", "properties": {"norad_id": 35946, "name": "WORLDVIEW-2 (WV-2)", "group": "resource", "lat": 67.94796407731103, "lon": -105.63378298763506, "alt_km": 756.3558380467721, "timestamp": "2025-12-07T14:37:04.866113+00:00", "meta": {"OBJECT_NAME": "WORLDVIEW-2 (WV-2)", "OBJECT_ID": "2009-055A", "EPOCH": "2025-12-06T21:24:11.644416", "MEAN_MOTION": 14.37648582, "ECCENTRICITY": 0.00054027, "INCLINATION": 98.4766, "RA_OF_ASC_NODE": 52.0577, "ARG_OF_PERICENTER": 80.9438, "MEAN_ANOMALY": 279.2361, "EPHEMERIS_TYPE": 0, "CLASSIFICATION_TYPE": "U", "NORAD_CAT_ID": 35946, "ELEMENT_SET_NO": 999, "REV_AT_EPOCH": 84801, "BSTAR": 0.00013269164, "MEAN_MOTION_DOT": 3.55e-06, "MEAN_MOTION_DDOT": 0}, "tle": {"line1": "1 35946U 09055A   25340.89180144  .00000355  00000+0  13269-3 0  9991", "line2": "2 35946  98.4766  52.0577 0005402  80.9438 279.2361 14.37648582848017"}}, "geometry": {"type": "Point", "coordinates": [-105.63378298763506, 67.94796407731103]}}, {"type": "Feature", "properties": {"norad_id": 36036, "name": "SMOS", "group": "resource", "lat": 70.52858703926029, "lon": 11.560410878798539, "alt_km": 751.8105577258893, "timestamp": "2025-12-07T14:37:04.866124+00:00", "meta": {"OBJECT_NAME": "SMOS", "OBJECT_ID": "2009-059A", "EPOCH": "2025-12-06T06:25:45.772896", "MEAN_MOTION": 14.39732741, "ECCENTRICITY": 0.0001133, "INCLINATION": 98.4387, "RA_OF_ASC_NODE": 165.4122, "ARG_OF_PERICENTER": 84.8118, "MEAN_ANOMALY": 275.3199, "EPHEMERIS_TYPE": 0, "CLASSIFICATION_TYPE": "U", "NORAD_CAT_ID": 36036, "ELEMENT_SET_NO": 999, "REV_AT_EPOCH": 84569, "BSTAR": 0.00026315864, "MEAN_MOTION_DOT": 7.81e-06, "MEAN_MOTION_DDOT": 0}, "tle": {"line1": "1 36036U 09059A   25340.26789089  .00000781  00000+0  26316-3 0  9990", "line2": "2 36036  98.4387 165.4122 0001133  84.8118 275.3199 14.39732741845697"}}, "geometry": {"type": "Point", "coordinates": [11.560410878798539, 70.52858703926029]}}, {"type": "Feature", "properties": {"norad_id": 36110, "name": "YAOGAN-7", "group": "resource", "lat": -47.406543282523096, "lon": -127.78243619195895, "alt_km": 627.2445266068153, "timestamp": "2025-12-07T14:37:04.866134+00:00", "meta": {"OBJECT_NAME": "YAOGAN-7", "OBJECT_ID": "2009-069A", "EPOCH": "2025-12-06T22:34:59.271456", "MEAN_MOTION": 14.77718955, "ECCENTRICITY": 0.00235804, "INCLINATION": 98.0304, "RA_OF_ASC_NODE": 222.7185, "ARG_OF_PERICENTER": 301.0118, "MEAN_ANOMALY": 58.8776, "EPHEMERIS_TYPE": 0, "CLASSIFICATION_TYPE": "U", "NORAD_CAT_ID": 36110, "ELEMENT_SET_NO": 999, "REV_AT_EPOCH": 86123, "BSTAR": 0.00018535195, "MEAN_MOTION_DOT": 1.281e-05, "MEAN_MOTION_DDOT": 0}, "tle": {"line1": "1 36110U 09069A   25340.94096379  .00001281  00000+0  18535-3 0  9992", "line2": "2 36110  98.0304 222.7185 0023580 301.0118  58.8776 14.77718955861231"}}, "geometry": {"type": "Point", "coordinates": [-127.78243619195895, -47.406543282523096]}}, {"type": "Feature", "properties": {"norad_id": 36605, "name": "TANDEM-X", "group": "resource", "lat": 25.713587223217186, "lon": 170.67475713148391, "alt_km": 506.934961840313, "timestamp": "2025-12-07T14:37:04.866145+00:00", "meta": {"OBJECT_NAME": "TANDEM-X", "OBJECT_ID": "2010-030A", "EPOCH": "2025-12-06T14:13:48.617184", "MEAN_MOTION": 15.19146828, "ECCENTRICITY": 0.00021111, "INCLINATION": 97.4449, "RA_OF_ASC_NODE": 346.063, "ARG_OF_PERICENTER": 96.3345, "MEAN_ANOMALY": 263.813, "EPHEMERIS_TYPE": 0, "CLASSIFICATION_TYPE": "U", "NORAD_CAT_ID": 36605, "ELEMENT_SET_NO": 999, "REV_AT_EPOCH": 85740, "BSTAR": 0.00017045926, "MEAN_MOTION_DOT": 3.514e-05, "MEAN_MOTION_DDOT": 0}, "tle": {"line1": "1 36605U 10030A   25340.59292381  .00003514  00000+0  17046-3 0  9990", "line2": "2 36605  97.4449 346.0630 0002111  96.3345 263.8130 15.19146828857408"}}, "geometry": {"type": "Point", "coordinates": [170.67475713148391, 25.713587223217186]}}, {"type": "Feature", "properties": {"norad_id": 36795, "name": "CARTOSAT-2B", "group": "resource", "lat": -40.10284786654606, "lon": -155.81078060084064, "alt_km": 645.2829162481685, "timestamp": "2025-12-07T14:37:04.866155+00:00", "meta": {"OBJECT_NAME": "CARTOSAT-2B", "OBJECT_ID": "2010-035A", "EPOCH": "2025-12-06T23:00:34.924320", "MEAN_MOTION": 14.78775817, "ECCENTRICITY": 0.00129082, "INCLINATION": 97.786, "RA_OF_ASC_NODE": 30.1768, "ARG_OF_PERICENTER": 94.6523, "MEAN_ANOMALY": 265.6163, "EPHEMERIS_TYPE": 0, "CLASSIFICATION_TYPE": "U", "NORAD_CAT_ID": 36795, "ELEMENT_SET_NO": 999, "REV_AT_EPOCH": 83144, "BSTAR": 0.00019982384, "MEAN_MOTION_DOT": 1.42e-05, "MEAN_MOTION_DDOT": 0}, "tle": {"line1": "1 36795U 10035A   25340.95873755  .00001420  00000+0  19982-3 0  9990", "line2": "2 36795  97.7860  30.1768 0012908  94.6523 265.6163 14.78775817831447"}}, "geometry": {"type": "Point", "coordinates": [-155.81078060084064, -40.10284786654606]}}, {"type": "Feature", "properties": {"norad_id": 36834, "name": "YAOGAN-10", "group": "resource", "lat": -13.026958541664975, "lon": 179.62383847544544, "alt_km": 619.8320011827245, "timestamp": "2025-12-07T14:37:04.866166+00:00", "meta": {"OBJECT_NAME": "YAOGAN-10", "OBJECT_ID": "2010-038A", "EPOCH": "2025-12-06T23:16:29.097408", "MEAN_MOTION": 14.84574301, "ECCENTRICITY": 0.00015013, "INCLINATION": 97.9142, "RA_OF_ASC_NODE": 0.8337, "ARG_OF_PERICENTER": 84.5916, "MEAN_ANOMALY": 293.7762, "EPHEMERIS_TYPE": 0, "CLASSIFICATION_TYPE": "U", "NORAD_CAT_ID": 36834, "ELEMENT_SET_NO": 999, "REV_AT_EPOCH": 82868, "BSTAR": 0.00037732506, "MEAN_MOTION_DOT": 3.132e-05, "MEAN_MOTION_DDOT": 0}, "tle": {"line1": "1 36834U 10038A   25340.96978122  .00003132  00000+0  37733-3 0  9998", "line2": "2 36834  97.9142   0.8337 0001501  84.5916 293.7762 14.84574301828684"}}, "geometry": {"type": "Point", "coordinates": [179.62383847544544, -13.026958541664975]}}]}